     2.100          NAVIGATION                              RINEX VERSION / TYPE
fic2rin                                 07/17/2014 00:16:56 PGM / RUN BY / DATE
                                                            END OF HEADER
16 14  7 17  0  0  0.0 -.207154545933D-03  .227373675443D-11  .000000000000D+00
     .620000000000D+02  .579062500000D+02  .389409077594D-08 -.325935137375D+00
     .317580997944D-05  .769601878710D-02  .828690826893D-05  .515362593842D+04
     .345600000000D+06  .137835741043D-06  .166940497824D+01  .372529029846D-07
     .988297560069D+00  .231062500000D+03  .234876045839D+00 -.800283335013D-08
     .506449667090D-09  .100000000000D+01  .180100000000D+04  .000000000000D+00
     .240000000000D+01  .000000000000D+00 -.102445483208D-07  .620000000000D+02
     .338406000000D+06  .400000000000D+01
17 14  7 17  0  0  0.0 -.109458342195D-03 -.295585778076D-11  .000000000000D+00
     .670000000000D+02 -.333437500000D+02  .479448542385D-08 -.123697871617D+01
    -.149570405483D-05  .935004570056D-02  .427290797234D-05  .515361657333D+04
     .345600000000D+06  .130385160446D-06  .270088468792D+01  .193715095520D-06
     .969394468496D+00  .299843750000D+03 -.209806546828D+01 -.832534678411D-08
     .803604901941D-10  .100000000000D+01  .180100000000D+04  .000000000000D+00
     .240000000000D+01  .000000000000D+00 -.102445483208D-07  .670000000000D+02
     .338406000000D+06  .400000000000D+01
18 14  7 17  0  0  0.0  .332021620125D-03  .238742359215D-11  .000000000000D+00
     .300000000000D+02  .640000000000D+02  .557451791533D-08  .313734587848D+00
     .349432229996D-05  .154766035266D-01  .903196632862D-05  .515371008492D+04
     .345600000000D+06 -.230967998505D-06 -.154204943941D+01  .167638063431D-06
     .925297727370D+00  .190218750000D+03 -.202331440671D+01 -.878715173443D-08
     .133934150324D-09  .100000000000D+01  .180100000000D+04  .000000000000D+00
     .240000000000D+01  .000000000000D+00 -.111758708954D-07  .300000000000D+02
     .338406000000D+06  .400000000000D+01
20 14  7 17  0  0  0.0  .211418606341D-03  .420641299570D-11  .000000000000D+00
     .740000000000D+02  .518750000000D+02  .537165232231D-08  .819417689887D+00
     .272877514362D-05  .576943985652D-02  .104773789644D-04  .515376806450D+04
     .345600000000D+06 -.633299350739D-07 -.159508632015D+01  .540167093277D-07
     .926344614954D+00  .158531250000D+03  .133038849470D+01 -.857142846297D-08
     .245367363393D-09  .100000000000D+01  .180100000000D+04  .000000000000D+00
     .240000000000D+01  .000000000000D+00 -.838190317154D-08  .740000000000D+02
     .338406000000D+06  .400000000000D+01
21 14  7 17  0  0  0.0 -.373029150069D-03 -.216004991671D-11  .000000000000D+00
     .750000000000D+02 -.646875000000D+02  .534486549224D-08  .126108451789D+01
    -.338442623615D-05  .215581451776D-01  .109765678644D-04  .515373204994D+04
     .345600000000D+06 -.489875674248D-06 -.258698979334D+01  .931322574615D-08
     .932794165798D+00  .163218750000D+03 -.200959344057D+01 -.864536011395D-08
    -.248938940735D-09  .100000000000D+01  .180100000000D+04  .000000000000D+00
     .240000000000D+01  .000000000000D+00 -.111758708954D-07  .750000000000D+02
     .338406000000D+06  .400000000000D+01
22 14  7 17  0  0  0.0  .250861980021D-03  .329691829393D-11  .000000000000D+00
     .960000000000D+02  .717812500000D+02  .555630287089D-08 -.245928273431D+00
     .372715294361D-05  .738118996378D-02  .916980206966D-05  .515372823334D+04
     .345600000000D+06 -.279396772385D-07 -.154026005214D+01  .100582838058D-06
     .923079645127D+00  .181062500000D+03 -.205094903602D+01 -.870857703290D-08
     .224295057075D-09  .100000000000D+01  .180100000000D+04  .000000000000D+00
     .340000000000D+01  .000000000000D+00 -.172294676304D-07  .960000000000D+02
     .338406000000D+06  .400000000000D+01
23 14  7 17  0  0  0.0 -.371024943888D-04 -.295585778076D-11  .000000000000D+00
     .420000000000D+02  .903125000000D+01  .506556814410D-08 -.243868805008D+01
     .344589352608D-06  .961841398384D-02  .472366809845D-05  .515375634956D+04
     .345600000000D+06 -.428408384323D-07 -.475009482783D+00 -.147148966789D-06
     .951319129620D+00  .283187500000D+03 -.275814467376D+01 -.841749347953D-08
    -.136791412197D-09  .100000000000D+01  .180100000000D+04  .000000000000D+00
     .240000000000D+01  .000000000000D+00 -.200234353542D-07  .420000000000D+02
     .338406000000D+06  .400000000000D+01
24 14  7 17  0  0  0.0 -.319383107126D-04 -.682121026330D-12  .000000000000D+00
     .320000000000D+02 -.177812500000D+02  .429839333105D-08  .307974399991D+01
    -.931322574615D-06  .209290266503D-02  .933744013309D-05  .515372675896D+04
     .345600000000D+06 -.186264514923D-08  .551507651822D+00  .502914190292D-07
     .956660306433D+00  .197812500000D+03  .319694786743D+00 -.801676250177D-08
    -.253581991279D-09  .100000000000D+01  .180100000000D+04  .000000000000D+00
     .240000000000D+01  .000000000000D+00  .279396772385D-08  .320000000000D+02
     .338406000000D+06  .400000000000D+01
25 14  7 17  0  0  0.0  .247079879045D-04 -.227373675443D-12  .000000000000D+00
     .500000000000D+02  .605625000000D+02  .412731477637D-08  .103141185076D+01
     .293180346489D-05  .369241589215D-02  .798143446445D-05  .515358354378D+04
     .345600000000D+06 -.707805156708D-07  .160780146281D+01  .279396772385D-07
     .976397587542D+00  .233781250000D+03  .723762642248D+00 -.800176187693D-08
     .359657838335D-09  .100000000000D+01  .180100000000D+04  .000000000000D+00
     .240000000000D+01  .000000000000D+00  .512227416039D-08  .500000000000D+02
     .338406000000D+06  .400000000000D+01
26 14  7 17  0  0  0.0  .121388584375D-04 -.126192389871D-10  .000000000000D+00
     .470000000000D+02  .343750000000D+00  .432482300338D-08 -.250726532964D+01
     .949949026108D-07  .212406128412D-01  .466220080853D-05  .515369046783D+04
     .345600000000D+06  .273808836937D-06 -.385514375021D+00  .931322574615D-08
     .974547960234D+00  .294312500000D+03  .128895063205D+01 -.780532512312D-08
    -.152506352502D-09  .100000000000D+01  .180100000000D+04  .000000000000D+00
     .240000000000D+01  .000000000000D+00 -.605359673500D-08  .470000000000D+02
     .338406000000D+06  .400000000000D+01
27 14  7 17  0  0  0.0 -.166473910213D-05  .295585778076D-11  .000000000000D+00
     .670000000000D+02 -.371875000000D+02  .492056210402D-08 -.133039929688D+01
    -.203959643841D-05  .139553565532D-02  .390037894249D-05  .515366981697D+04
     .345600000000D+06  .000000000000D+00  .265503584785D+01 -.335276126862D-07
     .964138631010D+00  .304312500000D+03  .272894646152D+00 -.844785188694D-08
     .782175437889D-10  .100000000000D+01  .180100000000D+04  .000000000000D+00
     .240000000000D+01  .000000000000D+00  .186264514923D-08  .670000000000D+02
     .338406000000D+06  .400000000000D+01
28 14  7 17  0  0  0.0  .370139721781D-03  .284217094304D-11  .000000000000D+00
     .690000000000D+02  .408750000000D+02  .403623955415D-08 -.428468246508D+00
     .222586095333D-05  .191558334045D-01  .831298530102D-05  .515367496872D+04
     .345600000000D+06 -.193715095520D-06  .167513238737D+01  .154599547386D-06
     .986834311370D+00  .240500000000D+03 -.171156069186D+01 -.822105672573D-08
     .521450291926D-09  .100000000000D+01  .180100000000D+04  .000000000000D+00
     .340000000000D+01  .000000000000D+00 -.107102096081D-07  .690000000000D+02
     .338406000000D+06  .400000000000D+01
29 14  7 17  0  0  0.0  .547158531845D-03  .261479726760D-11  .000000000000D+00
     .240000000000D+02 -.446562500000D+02  .477412743300D-08  .141958828318D+01
    -.227428972721D-05  .137404154520D-02  .429712235928D-05  .515366954041D+04
     .345600000000D+06  .521540641785D-07  .270998638929D+01 -.260770320892D-07
     .970150400693D+00  .306218750000D+03 -.806392373479D+00 -.829677416538D-08
     .964325882329D-11  .100000000000D+01  .180100000000D+04  .000000000000D+00
     .240000000000D+01  .000000000000D+00 -.977888703346D-08  .240000000000D+02
     .338406000000D+06  .400000000000D+01
30 14  7 17  0  0  0.0 -.337278470397D-04 -.625277607469D-11  .000000000000D+00
     .720000000000D+02 -.249687500000D+02  .429482175371D-08  .233843967082D+01
    -.121630728245D-05  .902588595636D-03  .100899487734D-04  .515368684578D+04
     .345600000000D+06  .372529029846D-08  .640750498379D+00 -.100582838058D-06
     .958886997949D+00  .185281250000D+03  .289837734418D+01 -.799140430264D-08
    -.315370279295D-09  .100000000000D+01  .180100000000D+04  .000000000000D+00
     .240000000000D+01  .000000000000D+00  .325962901115D-08  .720000000000D+02
     .338406000000D+06  .400000000000D+01
31 14  7 17  0  0  0.0  .333448871970D-03 -.341060513165D-12  .000000000000D+00
     .450000000000D+02 -.211562500000D+02  .380551565786D-08  .218623989456D+01
    -.929459929466D-06  .796436390374D-02  .106804072857D-04  .515358956909D+04
     .345600000000D+06  .596046447754D-07  .593367635092D+00  .838190317154D-07
     .978244157350D+00  .181375000000D+03 -.634473182732D+00 -.767353391920D-08
    -.392159192147D-09  .100000000000D+01  .180100000000D+04  .000000000000D+00
     .240000000000D+01  .000000000000D+00 -.130385160446D-07  .450000000000D+02
     .338406000000D+06  .400000000000D+01
32 14  7 17  0  0  0.0 -.383764971048D-03  .829913915368D-11  .000000000000D+00
     .330000000000D+02  .774687500000D+02  .486555981295D-08  .278996019860D+01
     .386685132980D-05  .113835413940D-01  .983849167824D-05  .515369928360D+04
     .345600000000D+06 -.165775418282D-06 -.144680484123D+01  .100582838058D-06
     .947199035899D+00  .181312500000D+03 -.132330266372D+00 -.810140888477D-08
     .272154193457D-09  .100000000000D+01  .180100000000D+04  .000000000000D+00
     .240000000000D+01  .000000000000D+00 -.325962901115D-08  .330000000000D+02
     .338406000000D+06  .400000000000D+01
